{
  "norad_id": 45544,
  "name": "STARLINK-1373",
  "history": [
    {
      "epoch": "2026-03-28T18:04:14.900736Z",
      "apogee_km": 408.04487115070697,
      "perigee_km": 402.001482422801,
      "latitude_deg": -6.184022338450668e-06,
      "longitude_deg": -100.07126851619391,
      "height_km": 405.9389360162163,
      "semi_major_axis_km": 6783.160176786753,
      "eccentricity": 0.00044547,
      "inclination_deg": 53.05,
      "raan_deg": 357.1597,
      "arg_perigee_deg": 90.4818,
      "mean_anomaly_deg": 269.6702,
      "mean_motion_rev_day": 15.5401302
    },
    {
      "epoch": "2026-03-29T03:19:54.460992Z",
      "apogee_km": 407.88244853435117,
      "perigee_km": 401.8238817188594,
      "latitude_deg": -2.566246062917493e-06,
      "longitude_deg": 118.76966446214944,
      "height_km": 405.86495891721796,
      "semi_major_axis_km": 6782.990165126605,
      "eccentricity": 0.0004466,
      "inclination_deg": 53.0499,
      "raan_deg": 355.2958,
      "arg_perigee_deg": 92.2977,
      "mean_anomaly_deg": 267.8544,
      "mean_motion_rev_day": 15.54071446
    },
    {
      "epoch": "2026-03-30T00:56:18.724704Z",
      "apogee_km": 407.3230111493358,
      "perigee_km": 401.24867325186005,
      "latitude_deg": -4.002983106229587e-06,
      "longitude_deg": 149.4350077925952,
      "height_km": 405.55144117581074,
      "semi_major_axis_km": 6782.422842200597,
      "eccentricity": 0.0004478,
      "inclination_deg": 53.0498,
      "raan_deg": 350.9496,
      "arg_perigee_deg": 97.0955,
      "mean_anomaly_deg": 263.0564,
      "mean_motion_rev_day": 15.54266438
    }
  ]
}